#aV2007  1 28  0  0   .00000000      96 DD+AD WGS84 FIT  NGA
## 1412       .00000000   900.00000000 54128  .0000000000000
+   30     1  2  3  4  5  6  7  8  9 10 11 12 13 14 16 17 18
+         19 20 21 22 23 24 25 26 27 28 29 30 31  0  0  0  0
+          0  0  0  0  0  0  0  0  0  0  0  0  0  0  0  0  0
+          0  0  0  0  0  0  0  0  0  0  0  0  0  0  0  0  0
+          0  0  0  0  0  0  0  0  0  0  0  0  0  0  0  0  0
++         0  0  0  0  0  0  0  0  0  0  0  0  0  0  0  0  0
++         0  0  0  0  0  0  0  0  0  0  0  0  0  0  0  0  0
++         0  0  0  0  0  0  0  0  0  0  0  0  0  0  0  0  0
++         0  0  0  0  0  0  0  0  0  0  0  0  0  0  0  0  0
++         0  0  0  0  0  0  0  0  0  0  0  0  0  0  0  0  0
%c cc cc ccc ccc cccc cccc cccc cccc ccccc ccccc ccccc ccccc
%c cc cc ccc ccc cccc cccc cccc cccc ccccc ccccc ccccc ccccc
%f  0.0000000  0.000000000  0.00000000000  0.000000000000000
%f  0.0000000  0.000000000  0.00000000000  0.000000000000000
%i    0    0    0    0      0      0      0      0         0
%i    0    0    0    0      0      0      0      0         0
/*      NGA, ST. LOUIS,MO.                                  
/*   EPHEMERIS COMPUTED FROM  3 DAYS OF DATA                
/* CCCCCCCCCCCCCCCCCCCCCCCCCCCCCCCCCCCCCCCCCCCCCCCCCCCCCCCCC
/* CCCCCCCCCCCCCCCCCCCCCCCCCCCCCCCCCCCCCCCCCCCCCCCCCCCCCCCCC
*  2007  1 28  1 15   .00000000                                                 
P  1 -20318.719747 -12650.722446 -11370.972063    104.153955                    
V  1  -8165.866579 -12332.000717  27741.505852       .025325                    
P  2  15517.807273   2482.207034 -21633.641421     77.193167                    
V  2  -7644.602612  25878.964780  -2792.705574       .034009                    
P  3 -22280.737678  -7331.678050  12562.265751      4.639700                    
V  3 -10074.375190 -13073.359131 -24765.753176       .059194                    
P  4   8936.332720  16283.732158 -18911.871758       .445600                    
V  4  -9237.736472  22277.405953  15226.487295       .024291                    
P  5  19492.863578 -14432.445138 -10881.506618     22.479883                    
V  5  13868.670920  -1125.121086  27054.491698       .104190                    
P  6    900.782176 -18729.412958 -18604.384218    427.799003                    
V  6  18245.234952  15892.096757 -15018.122736      -.249057                    
P  7  -2479.559536 -19886.302520 -17053.578345    433.800597                    
V  7  17738.582043  13908.982197 -18520.369890      -.114484                    
P  8    748.046720  23014.226223  12724.387118    -94.637850                    
V  8  -7752.099462  14723.912032 -26352.752973      -.014805                    
P  9  14491.130230 -16921.523044  13700.284635     54.999327                    
V  9  -2534.403271  18453.060459  24680.362195       .017795                    
P 10  26049.059371   -920.502726  -6046.500393     96.555776                    
V 10  -6913.494484   3520.077018 -30542.457860       .005644                    
P 11 -13095.994717  19041.886821  12741.428382      5.177787                    
V 11  -1634.960164 -17052.555472  23907.455578       .013837                    
P 12  21289.437734 -12063.954315 -10171.730266    -57.551911                    
V 12  13321.878478   -397.944792  28099.686114       .051387                    
P 13   1565.446526  19682.851527 -17877.222924    137.351728                    
V 13 -15381.431174 -16355.335737 -19406.529622       .040104                    
P 14 -15612.363895 -21242.376531   3615.993832      6.180489                    
V 14   4360.147019   2103.227486  31861.221576       .012914                    
P 16 -23828.601064  -3100.941333 -11373.132140    116.650282                    
V 16  13748.762548  -5181.881325 -27069.451775       .037345                    
P 17  15795.726578  21128.101573   3587.904608     80.867899                    
V 17  -5074.080368  -1531.434428  31217.299533      -.013953                    
P 18   2583.927332 -15768.972392  21303.037667   -253.871767                    
V 18  26526.729960  -3980.867354  -6519.465773       .000573                    
P 19 -17560.003990    698.231958  20037.353642     61.602103                    
V 19 -14991.561858 -20307.505578 -12395.020012       .043029                    
P 20 -19381.408510  13444.781320 -12258.344720    -22.130515                    
V 20 -15611.600804   1083.871480  26113.430275      -.001367                    
P 21   3686.242211 -25152.257477   6711.208538     69.694234                    
V 21   6375.102639  -6826.075810 -30057.220804       .010853                    
P 22 -10865.928487 -13012.807283  20608.656340    164.391336                    
V 22  25309.151020  -5275.775347  10072.022743       .018427                    
P 23  -8876.902142  12424.110342 -21794.819450    147.602379                    
V 23 -18853.907228 -19991.280673  -3917.236746       .014741                    
P 24  16392.803403 -15470.697221 -14126.219461     72.400146                    
V 24  -4399.083346  17708.062741 -23874.338718       .032968                    
P 25 -13859.316355  -6708.503296 -21254.522630    368.718585                    
V 25   6351.263838 -27187.358268   4505.989710      -.133298                    
P 26  18005.694272   1645.897064  19245.386704    -15.247614                    
V 26  15804.314121  19472.928398 -15553.427583      -.180621                    
P 27  -3406.325105  25938.936772   4257.996786     90.898367                    
V 27  -3935.977131   3820.418295 -31354.360186       .020904                    
P 28   6896.939652  14114.627082  21767.160554      8.644979                    
V 28 -26292.993969   5462.700028   4510.947380      -.007650                    
P 29  19942.657983   4823.682914  17281.932447    330.739634                    
V 29  13744.689591  16314.946288 -20350.947396       .137550                    
P 30  10393.581468 -16403.382099 -18374.971369     23.778911                    
V 30  22506.855332  -4075.937369  16756.334727       .009915                    
P 31 -10306.161259 -13855.967991 -19965.581053      1.603813                    
V 31   8765.952722 -24304.491770  12270.747360       .047836                    
EOF
